CCSDS_OEM_VERS = 2.0
COMMENT This is a file comment
COMMENT It can also be multi-line
CREATION_DATE = 2020-04-19T13:19:22.133
ORIGINATOR = GorgiAstro

META_START
COMMENT Comment in metadata section
OBJECT_NAME = STS 106
OBJECT_ID = 2000-053A
CENTER_NAME = EARTH
REF_FRAME = EME2000
REF_FRAME_EPOCH = 2000-01-01T00:00:00.000
TIME_SYSTEM = TAI
START_TIME = 1996-12-18T12:00:00.331
USEABLE_START_TIME = 1996-12-18T12:10:00.331
USEABLE_STOP_TIME = 1996-12-18T21:23:00.331
STOP_TIME = 1996-12-18T12:02:00.331
INTERPOLATION = HERMITE
INTERPOLATION_DEGREE = 7
META_STOP
COMMENT Comment before data section

1996-12-18T12:00:00.331  2789.600000 -280.000000 -1746.800000  4.730000000 -2.500000000 -1.040000000  0.008000 0.001000 -0.159000
1996-12-18T12:01:00.331  2783.400000 -308.100000 -1877.100000  5.190000000 -2.420000000 -2.000000000  0.008000 0.001000 0.001000
1996-12-18T12:02:00.331  2776.000000 -336.900000 -2008.700000  5.640000000 -2.340000000 -1.950000000  0.008000 0.001000 0.159000

META_START
OBJECT_NAME = STS 106
OBJECT_ID = 2000-053A
CENTER_NAME = EARTH
REF_FRAME = EME2000
TIME_SYSTEM = TAI
START_TIME = 1996-12-18T12:00:00.331
STOP_TIME = 1996-12-18T12:02:00.331
META_STOP

1996-12-18T12:00:00.331  2789.600000 -280.000000 -1746.800000  4.730000000 -2.500000000 -1.040000000  0.008000 0.001000 -0.159000
1996-12-18T12:01:00.331  2783.400000 -308.100000 -1877.100000  5.190000000 -2.420000000 -2.000000000  0.008000 0.001000 0.001000
1996-12-18T12:02:00.331  2776.000000 -336.900000 -2008.700000  5.640000000 -2.340000000 -1.950000000  0.008000 0.001000 0.159000
